CCSDS_OMM_VERS = 2.0
CREATION_DATE  = 
ORIGINATOR     = 

OBJECT_NAME    = SL-14 R/B
OBJECT_ID      = 1986-046B
CENTER_NAME    = EARTH
REF_FRAME      = TEME
TIME_SYSTEM    = UTC
MEAN_ELEMENT_THEORY = SGP/SGP4

EPOCH          = 2026-01-20T18:46:50.084832
MEAN_MOTION    = 14.85535925
ECCENTRICITY   = .00238016
INCLINATION    = 82.4836
RA_OF_ASC_NODE = 125.4446
ARG_OF_PERICENTER = 29.6744
MEAN_ANOMALY   = 330.5816

EPHEMERIS_TYPE = 0
CLASSIFICATION_TYPE = U
NORAD_CAT_ID   = 16792
ELEMENT_SET_NO = 999
REV_AT_EPOCH   = 11929
BSTAR          = .10074132E-3
MEAN_MOTION_DOT = .899E-5
MEAN_MOTION_DDOT = 0

CCSDS_OMM_VERS = 2.0
CREATION_DATE  = 
ORIGINATOR     = 

OBJECT_NAME    = SL-14 R/B
OBJECT_ID      = 1986-055B
CENTER_NAME    = EARTH
REF_FRAME      = TEME
TIME_SYSTEM    = UTC
MEAN_ELEMENT_THEORY = SGP/SGP4

EPOCH          = 2026-01-20T22:11:42.813312
MEAN_MOTION    = 14.85580816
ECCENTRICITY   = .00200861
INCLINATION    = 82.5212
RA_OF_ASC_NODE = 171.5514
ARG_OF_PERICENTER = 127.6215
MEAN_ANOMALY   = 349.6209

EPHEMERIS_TYPE = 0
CLASSIFICATION_TYPE = U
NORAD_CAT_ID   = 16882
ELEMENT_SET_NO = 999
REV_AT_EPOCH   = 11227
BSTAR          = .11452049E-3
MEAN_MOTION_DOT = .1018E-4
MEAN_MOTION_DDOT = 0

CCSDS_OMM_VERS = 2.0
CREATION_DATE  = 
ORIGINATOR     = 

OBJECT_NAME    = AJISAI (EGS)
OBJECT_ID      = 1986-061A
CENTER_NAME    = EARTH
REF_FRAME      = TEME
TIME_SYSTEM    = UTC
MEAN_ELEMENT_THEORY = SGP/SGP4

EPOCH          = 2026-01-20T22:23:46.451328
MEAN_MOTION    = 12.44515121
ECCENTRICITY   = .00112788
INCLINATION    = 50.0069
RA_OF_ASC_NODE = 240.2008
ARG_OF_PERICENTER = 164.4485
MEAN_ANOMALY   = 266.3048

EPHEMERIS_TYPE = 0
CLASSIFICATION_TYPE = U
NORAD_CAT_ID   = 16908
ELEMENT_SET_NO = 999
REV_AT_EPOCH   = 46205
BSTAR          = .53214547E-4
MEAN_MOTION_DOT = -.9E-6
MEAN_MOTION_DDOT = 0

CCSDS_OMM_VERS = 2.0
CREATION_DATE  = 
ORIGINATOR     = 

OBJECT_NAME    = COSMOS 1812
OBJECT_ID      = 1987-003A
CENTER_NAME    = EARTH
REF_FRAME      = TEME
TIME_SYSTEM    = UTC
MEAN_ELEMENT_THEORY = SGP/SGP4

EPOCH          = 2026-01-20T16:09:52.625664
MEAN_MOTION    = 15.85958552
ECCENTRICITY   = .00019716
INCLINATION    = 82.4817
RA_OF_ASC_NODE = 249.5673
ARG_OF_PERICENTER = 40.8751
MEAN_ANOMALY   = 319.2667

EPHEMERIS_TYPE = 0
CLASSIFICATION_TYPE = U
NORAD_CAT_ID   = 17295
ELEMENT_SET_NO = 999
REV_AT_EPOCH   = 13680
BSTAR          = .11755627E-2
MEAN_MOTION_DOT = .296191E-2
MEAN_MOTION_DDOT = 0

CCSDS_OMM_VERS = 2.0
CREATION_DATE  = 
ORIGINATOR     = 

OBJECT_NAME    = SL-14 R/B
OBJECT_ID      = 1987-024B
CENTER_NAME    = EARTH
REF_FRAME      = TEME
TIME_SYSTEM    = UTC
MEAN_ELEMENT_THEORY = SGP/SGP4

EPOCH          = 2026-01-20T18:23:04.585920
MEAN_MOTION    = 14.86076243
ECCENTRICITY   = .00195523
INCLINATION    = 82.5303
RA_OF_ASC_NODE = 137.7955
ARG_OF_PERICENTER = 61.9023
MEAN_ANOMALY   = 298.4167

EPHEMERIS_TYPE = 0
CLASSIFICATION_TYPE = U
NORAD_CAT_ID   = 17567
ELEMENT_SET_NO = 999
REV_AT_EPOCH   = 8101
BSTAR          = .10198923E-3
MEAN_MOTION_DOT = .92E-5
MEAN_MOTION_DDOT = 0

CCSDS_OMM_VERS = 2.0
CREATION_DATE  = 
ORIGINATOR     = 

OBJECT_NAME    = COSMOS 1833
OBJECT_ID      = 1987-027A
CENTER_NAME    = EARTH
REF_FRAME      = TEME
TIME_SYSTEM    = UTC
MEAN_ELEMENT_THEORY = SGP/SGP4

EPOCH          = 2026-01-20T13:57:46.903968
MEAN_MOTION    = 14.13047953
ECCENTRICITY   = .0024364
INCLINATION    = 70.9193
RA_OF_ASC_NODE = 67.1304
ARG_OF_PERICENTER = 278.3808
MEAN_ANOMALY   = 81.4551

EPHEMERIS_TYPE = 0
CLASSIFICATION_TYPE = U
NORAD_CAT_ID   = 17589
ELEMENT_SET_NO = 999
REV_AT_EPOCH   = 352
BSTAR          = .18715116E-3
MEAN_MOTION_DOT = .302E-5
MEAN_MOTION_DDOT = 0

CCSDS_OMM_VERS = 2.0
CREATION_DATE  = 
ORIGINATOR     = 

OBJECT_NAME    = SL-16 R/B
OBJECT_ID      = 1987-027B
CENTER_NAME    = EARTH
REF_FRAME      = TEME
TIME_SYSTEM    = UTC
MEAN_ELEMENT_THEORY = SGP/SGP4

EPOCH          = 2026-01-20T23:27:01.044288
MEAN_MOTION    = 14.17159537
ECCENTRICITY   = .00061964
INCLINATION    = 71.0032
RA_OF_ASC_NODE = 17.0350
ARG_OF_PERICENTER = 216.9726
MEAN_ANOMALY   = 143.0971

EPHEMERIS_TYPE = 0
CLASSIFICATION_TYPE = U
NORAD_CAT_ID   = 17590
ELEMENT_SET_NO = 999
REV_AT_EPOCH   = 858
BSTAR          = -.53958222E-4
MEAN_MOTION_DOT = -.157E-5
MEAN_MOTION_DDOT = 0

CCSDS_OMM_VERS = 2.0
CREATION_DATE  = 
ORIGINATOR     = 

OBJECT_NAME    = SL-14 R/B
OBJECT_ID      = 1987-038B
CENTER_NAME    = EARTH
REF_FRAME      = TEME
TIME_SYSTEM    = UTC
MEAN_ELEMENT_THEORY = SGP/SGP4

EPOCH          = 2026-01-20T22:31:17.198400
MEAN_MOTION    = 14.85309665
ECCENTRICITY   = .00184144
INCLINATION    = 82.5031
RA_OF_ASC_NODE = 341.7775
ARG_OF_PERICENTER = 326.7939
MEAN_ANOMALY   = 33.2119

EPHEMERIS_TYPE = 0
CLASSIFICATION_TYPE = U
NORAD_CAT_ID   = 17912
ELEMENT_SET_NO = 999
REV_AT_EPOCH   = 7214
BSTAR          = .10693023E-3
MEAN_MOTION_DOT = .945E-5
MEAN_MOTION_DDOT = 0

CCSDS_OMM_VERS = 2.0
CREATION_DATE  = 
ORIGINATOR     = 

OBJECT_NAME    = COSMOS 1844
OBJECT_ID      = 1987-041A
CENTER_NAME    = EARTH
REF_FRAME      = TEME
TIME_SYSTEM    = UTC
MEAN_ELEMENT_THEORY = SGP/SGP4

EPOCH          = 2026-01-20T17:43:18.822720
MEAN_MOTION    = 14.14535858
ECCENTRICITY   = .00282759
INCLINATION    = 70.8994
RA_OF_ASC_NODE = 135.3186
ARG_OF_PERICENTER = 94.8021
MEAN_ANOMALY   = 265.6330

EPHEMERIS_TYPE = 0
CLASSIFICATION_TYPE = U
NORAD_CAT_ID   = 17973
ELEMENT_SET_NO = 999
REV_AT_EPOCH   = 99680
BSTAR          = -.89208653E-4
MEAN_MOTION_DOT = -.22E-5
MEAN_MOTION_DDOT = 0

CCSDS_OMM_VERS = 2.0
CREATION_DATE  = 
ORIGINATOR     = 

OBJECT_NAME    = SL-14 R/B
OBJECT_ID      = 1987-055B
CENTER_NAME    = EARTH
REF_FRAME      = TEME
TIME_SYSTEM    = UTC
MEAN_ELEMENT_THEORY = SGP/SGP4

EPOCH          = 2026-01-20T23:46:52.467456
MEAN_MOTION    = 14.85566300
ECCENTRICITY   = .00209663
INCLINATION    = 82.4975
RA_OF_ASC_NODE = 33.9878
ARG_OF_PERICENTER = 167.0486
MEAN_ANOMALY   = 193.1273

EPHEMERIS_TYPE = 0
CLASSIFICATION_TYPE = U
NORAD_CAT_ID   = 18153
ELEMENT_SET_NO = 999
REV_AT_EPOCH   = 6285
BSTAR          = .92393121E-4
MEAN_MOTION_DOT = .826E-5
MEAN_MOTION_DDOT = 0

CCSDS_OMM_VERS = 2.0
CREATION_DATE  = 
ORIGINATOR     = 

OBJECT_NAME    = COSMOS 1867
OBJECT_ID      = 1987-060A
CENTER_NAME    = EARTH
REF_FRAME      = TEME
TIME_SYSTEM    = UTC
MEAN_ELEMENT_THEORY = SGP/SGP4

EPOCH          = 2026-01-20T12:23:11.599008
MEAN_MOTION    = 14.31493566
ECCENTRICITY   = .00139141
INCLINATION    = 65.0106
RA_OF_ASC_NODE = 81.6140
ARG_OF_PERICENTER = 274.8371
MEAN_ANOMALY   = 85.1125

EPHEMERIS_TYPE = 0
CLASSIFICATION_TYPE = U
NORAD_CAT_ID   = 18187
ELEMENT_SET_NO = 999
REV_AT_EPOCH   = 1304
BSTAR          = .4450074E-4
MEAN_MOTION_DOT = .18E-6
MEAN_MOTION_DDOT = 0

CCSDS_OMM_VERS = 2.0
CREATION_DATE  = 
ORIGINATOR     = 

OBJECT_NAME    = SL-14 R/B
OBJECT_ID      = 1988-001B
CENTER_NAME    = EARTH
REF_FRAME      = TEME
TIME_SYSTEM    = UTC
MEAN_ELEMENT_THEORY = SGP/SGP4

EPOCH          = 2026-01-20T23:35:32.856288
MEAN_MOTION    = 14.85468689
ECCENTRICITY   = .00190732
INCLINATION    = 82.5109
RA_OF_ASC_NODE = 240.2365
ARG_OF_PERICENTER = 39.8826
MEAN_ANOMALY   = 320.3787

EPHEMERIS_TYPE = 0
CLASSIFICATION_TYPE = U
NORAD_CAT_ID   = 18749
ELEMENT_SET_NO = 999
REV_AT_EPOCH   = 3494
BSTAR          = .86724252E-4
MEAN_MOTION_DOT = .774E-5
MEAN_MOTION_DDOT = 0

