SL-14 R/B               
1 16792U 86046B   26020.78252413  .00000899  00000+0  10074-3 0  9991
2 16792  82.4836 125.4446 0023801  29.6744 330.5816 14.85535925119295
SL-14 R/B               
1 16882U 86055B   26020.92480108  .00001018  00000+0  11452-3 0  9996
2 16882  82.5212 171.5514 0020086 127.6215 349.6209 14.85580816112273
AJISAI (EGS)            
1 16908U 86061A   26020.93317652 -.00000090  00000+0  53215-4 0  9990
2 16908  50.0069 240.2008 0011278 164.4485 266.3048 12.44515121462055
COSMOS 1812             
1 17295U 87003A   26020.67352576  .00296191  00000+0  11756-2 0  9992
2 17295  82.4817 249.5673 0001971  40.8751 319.2667 15.85958552136800
SL-14 R/B               
1 17567U 87024B   26020.76602530  .00000920  00000+0  10199-3 0  9999
2 17567  82.5303 137.7955 0019552  61.9023 298.4167 14.86076243 81017
COSMOS 1833             
1 17589U 87027A   26020.58179287  .00000302  00000+0  18715-3 0  9990
2 17589  70.9193  67.1304 0024364 278.3808  81.4551 14.13047953  3528
SL-16 R/B               
1 17590U 87027B   26020.97709542 -.00000157  00000+0 -53958-4 0  9997
2 17590  71.0032  17.0350 0006196 216.9726 143.0971 14.17159537  8587
SL-14 R/B               
1 17912U 87038B   26020.93839350  .00000945  00000+0  10693-3 0  9995
2 17912  82.5031 341.7775 0018414 326.7939  33.2119 14.85309665 72142
COSMOS 1844             
1 17973U 87041A   26020.73841230 -.00000220  00000+0 -89209-4 0  9992
2 17973  70.8994 135.3186 0028275  94.8021 265.6330 14.14535858996802
SL-14 R/B               
1 18153U 87055B   26020.99088504  .00000826  00000+0  92393-4 0  9991
2 18153  82.4975  33.9878 0020966 167.0486 193.1273 14.85566300 62853
COSMOS 1867             
1 18187U 87060A   26020.51610647  .00000018  00000+0  44501-4 0  9992
2 18187  65.0106  81.6140 0013914 274.8371  85.1125 14.31493566 13047
SL-14 R/B               
1 18749U 88001B   26020.98301917  .00000774  00000+0  86724-4 0  9992
2 18749  82.5109 240.2365 0019073  39.8826 320.3787 14.85468689 34943
